STARLINK-30408          
1 57824U 23138S   26068.49176469 -.00001465  00000+0 -44950-4 0  9994
2 57824  43.0015 234.8161 0001710 273.2949  86.7706 15.26735277138709
BANDWAGON-4 OBJECT N    
1 66305U 25248N   26068.03100984  .00024115  00000+0  97341-3 0  9997
2 66305  45.4084 294.9612 0013521 206.7837 153.2354 15.24369076 17177
